H1 CPF 01  gfz 2021 02 25 01  5561 terrasarx 
H2 0702601  6201 31698    2021 02 25 00 59 42 2021 03 02 00 00 42   120 1 1  0 0 0
H9
10 0 59271  82782.000000  0   -1986758.449   6365426.504   1722520.029
10 0 59271  82902.000000  0   -1863180.674   6579017.486    834002.455
10 0 59271  83022.000000  0   -1704324.908   6675125.285    -69201.016
10 0 59271  83142.000000  0   -1515055.879   6651542.522   -971187.841
10 0 59271  83262.000000  0   -1300791.724   6508268.681  -1856093.506
10 0 59271  83382.000000  0   -1067366.640   6247510.226  -2708380.925
10 0 59271  83502.000000  0    -820887.590   5873636.428  -3513117.426
10 0 59271  83622.000000  0    -567588.012   5393095.662  -4256237.331
10 0 59271  83742.000000  0    -313682.196   4814292.224  -4924786.598
10 0 59271  83862.000000  0     -65223.317   4147427.696  -5507143.373
10 0 59271  83982.000000  0     172031.887   3404310.992  -5993212.688
10 0 59271  84102.000000  0     392748.357   2598140.432  -6374591.400
10 0 59271  84222.000000  0     592124.916   1743264.566  -6644701.396
10 0 59271  84342.000000  0     765992.742    854926.992  -6798892.525
10 0 59271  84462.000000  0     910897.817    -51002.707  -6834514.280
10 0 59271  84582.000000  0    1024166.441   -958307.486  -6750956.252
10 0 59271  84702.000000  0    1103952.741  -1850706.281  -6549655.668
10 0 59271  84822.000000  0    1149268.134  -2712137.486  -6234075.105
10 0 59271  84942.000000  0    1159992.992  -3527042.139  -5809651.649
10 0 59271  85062.000000  0    1136868.252  -4280644.144  -5283713.059
10 0 59271  85182.000000  0    1081468.882  -4959218.736  -4665361.053
10 0 59271  85302.000000  0     996159.060  -5550346.785  -3965325.722
10 0 59271  85422.000000  0     884028.791  -6043150.905  -3195789.039
10 0 59271  85542.000000  0     748813.786  -6428506.242  -2370179.941
10 0 59271  85662.000000  0     594800.329  -6699222.137  -1502944.055
10 0 59271  85782.000000  0     426716.442  -6850188.960   -609290.215
10 0 59271  85902.000000  0     249611.919  -6878484.591    295080.408
10 0 59271  86022.000000  0      68730.453  -6783438.456   1194256.303
10 0 59271  86142.000000  0    -110622.945  -6566651.465   2072403.867
10 0 59271  86262.000000  0    -283215.990  -6231969.844   2914056.136
10 0 59271  86382.000000  0    -444020.862  -5785411.780   3704394.748
10 0 59272    102.000000  0    -588340.381  -5235049.897   4429515.322
10 0 59272    222.000000  0    -711925.691  -4590856.793   5076674.608
10 0 59272    342.000000  0    -811081.929  -3864514.436   5634514.321
10 0 59272    462.000000  0    -882760.189  -3069192.657   6093258.951
10 0 59272    582.000000  0    -924633.470  -2219300.510   6444881.442
10 0 59272    702.000000  0    -935154.979  -1330220.392   6683235.636
10 0 59272    822.000000  0    -913598.671   -418027.788   6804158.581
10 0 59272    942.000000  0    -860081.737    500800.676   6805539.305
10 0 59272   1062.000000  0    -775566.922   1409684.588   6687353.466
10 0 59272   1182.000000  0    -661844.792   2292238.466   6451663.731
10 0 59272   1302.000000  0    -521496.964   3132566.762   6102585.970
10 0 59272   1422.000000  0    -357841.105   3915551.185   5646222.030
10 0 59272   1542.000000  0    -174858.434   4627125.806   5090558.280
10 0 59272   1662.000000  0      22895.496   5254535.332   4445332.776
10 0 59272   1782.000000  0     230395.112   5786572.618   3721868.245
10 0 59272   1902.000000  0     442261.157   6213785.054   2932877.802
10 0 59272   2022.000000  0     652887.681   6528658.204   2092244.629
10 0 59272   2142.000000  0     856577.979   6725757.017   1214770.332
10 0 59272   2262.000000  0    1047683.051   6801825.322    315908.629
10 0 59272   2382.000000  0    1220741.524   6755842.339   -588514.635
10 0 59272   2502.000000  0    1370615.840   6589034.211  -1482588.735
10 0 59272   2622.000000  0    1492621.393   6304840.920  -2350605.500
10 0 59272   2742.000000  0    1582645.963   5908839.820  -3177341.892
10 0 59272   2862.000000  0    1637256.385   5408627.076  -3948331.506
10 0 59272   2982.000000  0    1653790.177   4813660.320  -4650118.842
10 0 59272   3102.000000  0    1630429.667   4135067.293  -5270490.634
10 0 59272   3222.000000  0    1566257.252   3385427.556  -5798680.898
10 0 59272   3342.000000  0    1461291.184   2578531.443  -6225548.803
10 0 59272   3462.000000  0    1316500.644   1729121.110  -6543725.030
10 0 59272   3582.000000  0    1133801.446    852621.390  -6747727.500
10 0 59272   3702.000000  0     916031.883    -35137.623  -6834047.101
10 0 59272   3822.000000  0     666908.838   -918201.803  -6801200.992
10 0 59272   3942.000000  0     390965.073  -1780773.016  -6649753.717
10 0 59272   4062.000000  0      93469.484  -2607483.142  -6382308.243
10 0 59272   4182.000000  0    -219670.156  -3383662.454  -6003468.394
10 0 59272   4302.000000  0    -542020.437  -4095597.914  -5519767.242
10 0 59272   4422.000000  0    -866748.704  -4730775.392  -4939565.207
10 0 59272   4542.000000  0   -1186762.200  -5278104.387  -4272917.425
10 0 59272   4662.000000  0   -1494857.474  -5728119.829  -3531409.967
10 0 59272   4782.000000  0   -1783876.590  -6073156.056  -2727966.721
10 0 59272   4902.000000  0   -2046866.933  -6307489.199  -1876629.852
10 0 59272   5022.000000  0   -2277241.068  -6427444.587   -992316.062
10 0 59272   5142.000000  0   -2468932.472  -6431464.928    -90552.427
10 0 59272   5262.000000  0   -2616543.286  -6320135.890    812802.516
10 0 59272   5382.000000  0   -2715479.792  -6096168.299   1701845.791
10 0 59272   5502.000000  0   -2762072.097  -5764337.286   2560919.181
10 0 59272   5622.000000  0   -2753674.651  -5331379.502   3374893.660
10 0 59272   5742.000000  0   -2688744.813  -4805851.650   4129442.495
10 0 59272   5862.000000  0   -2566898.135  -4197954.563   4811297.309
10 0 59272   5982.000000  0   -2388939.953  -3519327.409   5408482.928
10 0 59272   6102.000000  0   -2156871.171  -2782815.802   5910526.422
10 0 59272   6222.000000  0   -1873868.483  -2002221.791   6308635.928
10 0 59272   6342.000000  0   -1544240.340  -1192041.085   6595849.673
10 0 59272   6462.000000  0   -1173359.667   -367189.717   6767151.973
10 0 59272   6582.000000  0    -767575.788    457271.741   6819553.431
10 0 59272   6702.000000  0    -334106.048   1266411.766   6752140.380
10 0 59272   6822.000000  0     119092.586   2045698.047   6566090.307
10 0 59272   6942.000000  0     583469.405   2781258.387   6264652.327
10 0 59272   7062.000000  0    1050040.317   3460127.605   5853093.781
10 0 59272   7182.000000  0    1509560.294   4070478.595   5338613.848
10 0 59272   7302.000000  0    1952705.478   4601833.035   4730223.796
10 0 59272   7422.000000  0    2370262.426   5045248.117   4038594.531
10 0 59272   7542.000000  0    2753319.330   5393473.101   3275873.265
10 0 59272   7662.000000  0    3093456.378   5641076.793   2455474.067
10 0 59272   7782.000000  0    3382931.164   5784541.181   1591838.466
10 0 59272   7902.000000  0    3614851.490   5822313.005    700175.395
10 0 59272   8022.000000  0    3783333.078   5754817.568   -203813.382
10 0 59272   8142.000000  0    3883638.990   5584431.490  -1104218.486
10 0 59272   8262.000000  0    3912295.575   5315416.396  -1985210.827
10 0 59272   8382.000000  0    3867183.239   4953815.446  -2831327.532
10 0 59272   8502.000000  0    3747598.572   4507314.657  -3627749.080
10 0 59272   8622.000000  0    3554286.860   3985073.283  -4360560.729
10 0 59272   8742.000000  0    3289445.966   3397529.718  -5016993.346
10 0 59272   8862.000000  0    2956701.209   2756186.532  -5585641.313
10 0 59272   8982.000000  0    2561052.058   2073379.791  -6056651.964
10 0 59272   9102.000000  0    2108792.792   1362038.917  -6421885.832
10 0 59272   9222.000000  0    1607409.186    635441.597  -6675044.868
10 0 59272   9342.000000  0    1065454.578    -93030.633  -6811770.431
10 0 59272   9462.000000  0     492404.354   -810134.405  -6829711.646
10 0 59272   9582.000000  0    -101507.511  -1503000.016  -6728559.686
10 0 59272   9702.000000  0    -705466.030  -2159355.441  -6510051.970
10 0 59272   9822.000000  0   -1308267.273  -2767738.954  -6177947.112
10 0 59272   9942.000000  0   -1898521.385  -3317697.177  -5737966.706
10 0 59272  10062.000000  0   -2464862.954  -3799964.070  -5197706.848
10 0 59272  10182.000000  0   -2996167.752  -4206620.706  -4566519.636
10 0 59272  10302.000000  0   -3481771.754  -4531231.421  -3855361.907
10 0 59272  10422.000000  0   -3911686.396  -4768952.447  -3076614.175
10 0 59272  10542.000000  0   -4276806.929  -4916611.526  -2243872.011
10 0 59272  10662.000000  0   -4569108.646  -4972755.428  -1371711.743
10 0 59272  10782.000000  0   -4781825.676  -4937663.882   -475434.587
10 0 59272  10902.000000  0   -4909607.468  -4813329.042    429206.016
10 0 59272  11022.000000  0   -4948648.759  -4603400.282   1326288.866
10 0 59272  11142.000000  0   -4896788.520  -4313094.239   2200014.914
10 0 59272  11262.000000  0   -4753575.150  -3949072.811   3034994.563
10 0 59272  11382.000000  0   -4520297.000  -3519292.872   3816526.212
10 0 59272  11502.000000  0   -4199977.506  -3032831.719   4530861.019
10 0 59272  11622.000000  0   -3797334.124  -2499691.733   5165447.301
10 0 59272  11742.000000  0   -3318704.446  -1930591.456   5709149.094
10 0 59272  11862.000000  0   -2771941.816  -1336748.017   6152438.666
10 0 59272  11982.000000  0   -2166281.023   -729653.345   6487559.976
10 0 59272  12102.000000  0   -1512176.601   -120848.907   6708658.470
10 0 59272  12222.000000  0    -821118.598    478293.238   6811875.519
10 0 59272  12342.000000  0    -105430.555   1056781.227   6795411.375
10 0 59272  12462.000000  0     621949.828   1604204.532   6659554.884
10 0 59272  12582.000000  0    1347704.051   2110921.433   6406678.757
10 0 59272  12702.000000  0    2058375.855   2568228.727   6041199.950
10 0 59272  12822.000000  0    2740620.080   2968511.971   5569507.936
99
